{"type": "FeatureCollection", "features": [ {"type": "Feature", "properties": {"norad_id": 40664, "name": "SKY MEXICO-1", "group": "intelsat", "lat": -0.029281924688801055, "lon": -50.62137560062043, "alt_km": 35776.91474449966, "timestamp": "2025-12-09T20:37:08.949738+00:00", "meta": {"OBJECT_NAME": "SKY MEXICO-1", "OBJECT_ID": "2015-026B", "EPOCH": "2025-12-09T13:11:54.834144", "MEAN_MOTION": 1.0027076, "ECCENTRICITY": 0.00027437, "INCLINATION": 0.0255, "RA_OF_ASC_NODE": 62.1436, "ARG_OF_PERICENTER": 212.1489, "MEAN_ANOMALY": 283.4587, "EPHEMERIS_TYPE": 0, "CLASSIFICATION_TYPE": "U", "NORAD_CAT_ID": 40664, "ELEMENT_SET_NO": 999, "REV_AT_EPOCH": 3855, "BSTAR": 0, "MEAN_MOTION_DOT": -2.32e-06, "MEAN_MOTION_DDOT": 0}, "tle": {"line1": "1 40664U 15026B   25343.54994021 -.00000232  00000+0  00000+0 0  9991", "line2": "2 40664   0.0255  62.1436 0002743 212.1489 283.4587  1.00270760 38550"}}, "geometry": {"type": "Point", "coordinates": [-50.62137560062043, -0.029281924688801055]}}, {"type": "Feature", "properties": {"norad_id": 40874, "name": "INTELSAT 34 (IS-34)", "group": "intelsat", "lat": 0.005685620896181735, "lon": -27.36538712859859, "alt_km": 35788.89734942164, "timestamp": "2025-12-09T20:37:08.949750+00:00", "meta": {"OBJECT_NAME": "INTELSAT 34 (IS-34)", "OBJECT_ID": "2015-039A", "EPOCH": "2025-12-09T13:18:24.212160", "MEAN_MOTION": 1.00270174, "ECCENTRICITY": 5.837e-05, "INCLINATION": 0.0128, "RA_OF_ASC_NODE": 307.095, "ARG_OF_PERICENTER": 223.5421, "MEAN_ANOMALY": 52.0138, "EPHEMERIS_TYPE": 0, "CLASSIFICATION_TYPE": "U", "NORAD_CAT_ID": 40874, "ELEMENT_SET_NO": 999, "REV_AT_EPOCH": 3772, "BSTAR": 0, "MEAN_MOTION_DOT": -2.83e-06, "MEAN_MOTION_DDOT": 0}, "tle": {"line1": "1 40874U 15039A   25343.55444690 -.00000283  00000+0  00000+0 0  9997", "line2": "2 40874   0.0128 307.0950 0000583 223.5421  52.0138  1.00270174 37725"}}, "geometry": {"type": "Point", "coordinates": [-27.36538712859859, 0.005685620896181735]}}, {"type": "Feature", "properties": {"norad_id": 41581, "name": "INTELSAT 31 (IS-31)", "group": "intelsat", "lat": -0.004429696267764577, "lon": -66.92325501210983, "alt_km": 35784.54081532504, "timestamp": "2025-12-09T20:37:08.949762+00:00", "meta": {"OBJECT_NAME": "INTELSAT 31 (IS-31)", "OBJECT_ID": "2016-035A", "EPOCH": "2025-12-09T11:18:23.865120", "MEAN_MOTION": 1.00269264, "ECCENTRICITY": 0.00018649, "INCLINATION": 0.0173, "RA_OF_ASC_NODE": 272.0152, "ARG_OF_PERICENTER": 307.5396, "MEAN_ANOMALY": 293.4379, "EPHEMERIS_TYPE": 0, "CLASSIFICATION_TYPE": "U", "NORAD_CAT_ID": 41581, "ELEMENT_SET_NO": 999, "REV_AT_EPOCH": 3478, "BSTAR": 0, "MEAN_MOTION_DOT": -1.48e-06, "MEAN_MOTION_DDOT": 0}, "tle": {"line1": "1 41581U 16035A   25343.47110955 -.00000148  00000+0  00000+0 0  9995", "line2": "2 41581   0.0173 272.0152 0001864 307.5396 293.4379  1.00269264 34782"}}, "geometry": {"type": "Point", "coordinates": [-66.92325501210983, -0.004429696267764577]}}, {"type": "Feature", "properties": {"norad_id": 41747, "name": "INTELSAT 36 (IS-36)", "group": "intelsat", "lat": 0.029865249485457282, "lon": 96.62911404630069, "alt_km": 35791.17620192324, "timestamp": "2025-12-09T20:37:08.949773+00:00", "meta": {"OBJECT_NAME": "INTELSAT 36 (IS-36)", "OBJECT_ID": "2016-053A", "EPOCH": "2025-12-09T10:28:32.982240", "MEAN_MOTION": 1.00269892, "ECCENTRICITY": 0.00014122, "INCLINATION": 0.0115, "RA_OF_ASC_NODE": 359.5133, "ARG_OF_PERICENTER": 316.9203, "MEAN_ANOMALY": 347.6248, "EPHEMERIS_TYPE": 0, "CLASSIFICATION_TYPE": "U", "NORAD_CAT_ID": 41747, "ELEMENT_SET_NO": 999, "REV_AT_EPOCH": 3404, "BSTAR": 0, "MEAN_MOTION_DOT": -2.2e-07, "MEAN_MOTION_DDOT": 0}, "tle": {"line1": "1 41747U 16053A   25343.43649285 -.00000022  00000+0  00000+0 0  9999", "line2": "2 41747   0.0115 359.5133 0001412 316.9203 347.6248  1.00269892 34045"}}, "geometry": {"type": "Point", "coordinates": [96.62911404630069, 0.029865249485457282]}}, {"type": "Feature", "properties": {"norad_id": 41945, "name": "INTELSAT 32E (IS-32E)", "group": "intelsat", "lat": -0.022441822049141157, "lon": -15.05093690172527, "alt_km": 35785.03416579309, "timestamp": "2025-12-09T20:37:08.949785+00:00", "meta": {"OBJECT_NAME": "INTELSAT 32E (IS-32E)", "OBJECT_ID": "2017-007B", "EPOCH": "2025-12-09T11:39:18.704160", "MEAN_MOTION": 1.00269368, "ECCENTRICITY": 4.309e-05, "INCLINATION": 0.0272, "RA_OF_ASC_NODE": 68.2271, "ARG_OF_PERICENTER": 288.178, "MEAN_ANOMALY": 213.7239, "EPHEMERIS_TYPE": 0, "CLASSIFICATION_TYPE": "U", "NORAD_CAT_ID": 41945, "ELEMENT_SET_NO": 999, "REV_AT_EPOCH": 3232, "BSTAR": 0, "MEAN_MOTION_DOT": -2.67e-06, "MEAN_MOTION_DDOT": 0}, "tle": {"line1": "1 41945U 17007B   25343.48563315 -.00000267  00000+0  00000+0 0  9994", "line2": "2 41945   0.0272  68.2271 0000430 288.1780 213.7239  1.00269368 32325"}}, "geometry": {"type": "Point", "coordinates": [-15.05093690172527, -0.022441822049141157]}}, {"type": "Feature", "properties": {"norad_id": 42818, "name": "INTELSAT 35E (IS-35E)", "group": "intelsat", "lat": 0.011274441470667017, "lon": -6.349922084443684, "alt_km": 35786.53805007544, "timestamp": "2025-12-09T20:37:08.949797+00:00", "meta": {"OBJECT_NAME": "INTELSAT 35E (IS-35E)", "OBJECT_ID": "2017-041A", "EPOCH": "2025-12-09T09:59:05.804160", "MEAN_MOTION": 1.00269353, "ECCENTRICITY": 0.00023078, "INCLINATION": 0.0186, "RA_OF_ASC_NODE": 333.6977, "ARG_OF_PERICENTER": 291.5297, "MEAN_ANOMALY": 288.4535, "EPHEMERIS_TYPE": 0, "CLASSIFICATION_TYPE": "U", "NORAD_CAT_ID": 42818, "ELEMENT_SET_NO": 999, "REV_AT_EPOCH": 3091, "BSTAR": 0, "MEAN_MOTION_DOT": -2.36e-06, "MEAN_MOTION_DDOT": 0}, "tle": {"line1": "1 42818U 17041A   25343.41603940 -.00000236  00000+0  00000+0 0  9990", "line2": "2 42818   0.0186 333.6977 0002307 291.5297 288.4535  1.00269353 30912"}}, "geometry": {"type": "Point", "coordinates": [-6.349922084443684, 0.011274441470667017]}}, {"type": "Feature", "properties": {"norad_id": 42950, "name": "INTELSAT 37E (IS-37E)", "group": "intelsat", "lat": 0.006287217819624595, "lon": 10.160922751062186, "alt_km": 35792.73189387171, "timestamp": "2025-12-09T20:37:08.949808+00:00", "meta": {"OBJECT_NAME": "INTELSAT 37E (IS-37E)", "OBJECT_ID": "2017-059A", "EPOCH": "2025-12-09T10:03:50.348736", "MEAN_MOTION": 1.00270735, "ECCENTRICITY": 0.00033791, "INCLINATION": 0.0166, "RA_OF_ASC_NODE": 10.0825, "ARG_OF_PERICENTER": 243.6968, "MEAN_ANOMALY": 317.5906, "EPHEMERIS_TYPE": 0, "CLASSIFICATION_TYPE": "U", "NORAD_CAT_ID": 42950, "ELEMENT_SET_NO": 999, "REV_AT_EPOCH": 3016, "BSTAR": 0, "MEAN_MOTION_DOT": -1.39e-06, "MEAN_MOTION_DDOT": 0}, "tle": {"line1": "1 42950U 17059A   25343.41933274 -.00000139  00000+0  00000+0 0  9994", "line2": "2 42950   0.0166  10.0825 0003379 243.6968 317.5906  1.00270735 30167"}}, "geometry": {"type": "Point", "coordinates": [10.160922751062186, 0.006287217819624595]}}, {"type": "Feature", "properties": {"norad_id": 43632, "name": "AZERSPACE 2 (IS-38)", "group": "intelsat", "lat": 0.03549613146950487, "lon": 73.23666113968119, "alt_km": 35792.86717358788, "timestamp": "2025-12-09T20:37:08.949820+00:00", "meta": {"OBJECT_NAME": "AZERSPACE 2 (IS-38)", "OBJECT_ID": "2018-074A", "EPOCH": "2025-12-09T13:47:13.951392", "MEAN_MOTION": 1.00270529, "ECCENTRICITY": 0.00015419, "INCLINATION": 0.0155, "RA_OF_ASC_NODE": 340.9903, "ARG_OF_PERICENTER": 279.6716, "MEAN_ANOMALY": 69.8172, "EPHEMERIS_TYPE": 0, "CLASSIFICATION_TYPE": "U", "NORAD_CAT_ID": 43632, "ELEMENT_SET_NO": 999, "REV_AT_EPOCH": 2654, "BSTAR": 0, "MEAN_MOTION_DOT": 1.39e-06, "MEAN_MOTION_DDOT": 0}, "tle": {"line1": "1 43632U 18074A   25343.57446703  .00000139  00000+0  00000+0 0  9992", "line2": "2 43632   0.0155 340.9903 0001541 279.6716  69.8172  1.00270529 26544"}}, "geometry": {"type": "Point", "coordinates": [73.23666113968119, 0.03549613146950487]}}, {"type": "Feature", "properties": {"norad_id": 43633, "name": "HORIZONS-3E", "group": "intelsat", "lat": -0.012932927836780269, "lon": -162.87892939767278, "alt_km": 35787.38043998722, "timestamp": "2025-12-09T20:37:08.949832+00:00", "meta": {"OBJECT_NAME": "HORIZONS-3E", "OBJECT_ID": "2018-074B", "EPOCH": "2025-12-09T12:58:38.887104", "MEAN_MOTION": 1.00268186, "ECCENTRICITY": 0.00012718, "INCLINATION": 0.0428, "RA_OF_ASC_NODE": 176.1324, "ARG_OF_PERICENTER": 114.3524, "MEAN_ANOMALY": 151.719, "EPHEMERIS_TYPE": 0, "CLASSIFICATION_TYPE": "U", "NORAD_CAT_ID": 43633, "ELEMENT_SET_NO": 999, "REV_AT_EPOCH": 2643, "BSTAR": 0, "MEAN_MOTION_DOT": -2.9e-07, "MEAN_MOTION_DDOT": 0}, "tle": {"line1": "1 43633U 18074B   25343.54072786 -.00000029  00000+0  00000+0 0  9995", "line2": "2 43633   0.0428 176.1324 0001271 114.3524 151.7190  1.00268186 26431"}}, "geometry": {"type": "Point", "coordinates": [-162.87892939767278, -0.012932927836780269]}}, {"type": "Feature", "properties": {"norad_id": 44333, "name": "AT&T T-16", "group": "intelsat", "lat": -0.027016564462906293, "lon": -72.73063449069487, "alt_km": 35788.5079743673, "timestamp": "2025-12-09T20:37:08.949843+00:00", "meta": {"OBJECT_NAME": "AT&T T-16", "OBJECT_ID": "2019-034A", "EPOCH": "2025-12-09T13:14:11.020416", "MEAN_MOTION": 1.00268586, "ECCENTRICITY": 5.405e-05, "INCLINATION": 0.0238, "RA_OF_ASC_NODE": 62.7711, "ARG_OF_PERICENTER": 92.6025, "MEAN_ANOMALY": 20.8533, "EPHEMERIS_TYPE": 0, "CLASSIFICATION_TYPE": "U", "NORAD_CAT_ID": 44333, "ELEMENT_SET_NO": 999, "REV_AT_EPOCH": 2373, "BSTAR": 0, "MEAN_MOTION_DOT": -1.13e-06, "MEAN_MOTION_DDOT": 0}, "tle": {"line1": "1 44333U 19034A   25343.55151644 -.00000113  00000+0  00000+0 0  9996", "line2": "2 44333   0.0238  62.7711 0000540  92.6025  20.8533  1.00268586 23731"}}, "geometry": {"type": "Point", "coordinates": [-72.73063449069487, -0.027016564462906293]}}]}